{"type":"FeatureCollection","features":[{"type":"Feature","properties":{"@id":"way/87220776","name":"Migros","branch":"Luzern Schweizerhof","alt_name":"Migros Schweizerhof (MM)","addr:city":"Luzern","brand":"Migros","brand:wikidata":"Q680727","opening_hours":"Mo-Fr 08:00-19:00; Th 08:00-21:00; Sa 08:00-17:00; PH off","operator":"Genossenschaft Migros Luzern","wheelchair":"yes","@user":"sovereign_ch","internet_access":"","organic":"","level":"","phone":"","contact:phone":"","website":"https://filialen.migros.ch/de/migros-supermarkt-luzern-schweizerhof","addr:street":"Hertensteinstrasse","addr:housenumber":9,"addr:postcode":6004},"geometry":{"type":"Point","coordinates":[8.3097142,47.0546778]}},{"type":"Feature","properties":{"@id":"way/90520644","name":"Denner","branch":"Luzern Sälistrasse","alt_name":"","addr:city":"Luzern","brand":"Denner","brand:wikidata":"Q379911","opening_hours":"","operator":"","wheelchair":"","@user":"sovereign_ch","internet_access":"","organic":"","level":"","phone":"","contact:phone":"","website":"","addr:street":"Sälistrasse","addr:housenumber":21,"addr:postcode":6005},"geometry":{"type":"Point","coordinates":[8.3008023,47.0456514]}},{"type":"Feature","properties":{"@id":"way/93459850","name":"Coop","branch":"Luzern Kasernenplatz","alt_name":"Coop Kasernenplatz","addr:city":"Luzern","brand":"Coop","brand:wikidata":"Q432564","opening_hours":"Mo-We 07:00-18:30, Th,Fr 07:00-20:00, Sa 07:00-16:00","operator":"Coop Genossenschaft","wheelchair":"","@user":"sovereign_ch","internet_access":"","organic":"","level":"","phone":"","contact:phone":"","website":"","addr:street":"Bruchstrasse","addr:housenumber":9,"addr:postcode":6003},"geometry":{"type":"Point","coordinates":[8.2999089,47.0511471]}},{"type":"Feature","properties":{"@id":"way/379342427","name":"Migros","branch":"Luzern Bahnhof","alt_name":"Migros Luzern Bahnhof","addr:city":"Luzern","brand":"Migros","brand:wikidata":"Q680727","opening_hours":"Mo-Sa 06:00-22:00, Su 07:00-22:00","operator":"Genossenschaft Migros Luzern","wheelchair":"","@user":"sovereign_ch","internet_access":"","organic":"","level":-1,"phone":"","contact:phone":"","website":"https://filialen.migros.ch/de/migros-supermarkt-luzern-bahnhof","addr:street":"","addr:housenumber":"","addr:postcode":6003},"geometry":{"type":"Point","coordinates":[8.3092909,47.0507647]}},{"type":"Feature","properties":{"@id":"way/379354224","name":"Coop","branch":"Luzern Bahnhof","alt_name":"Coop Luzern Bahnhof","addr:city":"Luzern","brand":"Coop","brand:wikidata":"Q432564","opening_hours":"Mo-Sa 06:00-22:00; Su 07:00-22:00","operator":"Coop Genossenschaft","wheelchair":"yes","@user":"sovereign_ch","internet_access":"","organic":"","level":-1,"phone":"","contact:phone":"+41 41 226 10 30","website":"","addr:street":"","addr:housenumber":"","addr:postcode":6003},"geometry":{"type":"Point","coordinates":[8.311262,47.0503038]}},{"type":"Feature","properties":{"@id":"node/506648228","name":"Denner","branch":"Luzern Kellerstrasse","alt_name":"","addr:city":"Luzern","brand":"Denner","brand:wikidata":"Q379911","opening_hours":"Mo-We 08:00-18:30; Th-Fr 08:00-20:00; Sa 08:00-16:00","operator":"","wheelchair":"yes","@user":"sovereign_ch","internet_access":"","organic":"","level":"","phone":"","contact:phone":"","website":"","addr:street":"Brünigstrasse","addr:housenumber":"16-18","addr:postcode":6005},"geometry":{"type":"Point","coordinates":[8.3115279,47.0431572]}},{"type":"Feature","properties":{"@id":"node/506648661","name":"Migros","branch":"Luzern Tribschenstrasse","alt_name":"Migros Tribschenstrasse","addr:city":"Luzern","brand":"Migros","brand:wikidata":"Q680727","opening_hours":"Mo-Fr 07:00-19:00, Sa 07:00-17:00; PH off","operator":"Genossenschaft Migros Luzern","wheelchair":"","@user":"sovereign_ch","internet_access":"","organic":"","level":"","phone":"","contact:phone":"","website":"https://filialen.migros.ch/de/migros-supermarkt-luzern-tribschenstrasse","addr:street":"Tribschenstrasse","addr:housenumber":66,"addr:postcode":6005},"geometry":{"type":"Point","coordinates":[8.3179016,47.0420802]}},{"type":"Feature","properties":{"@id":"node/668943412","name":"Coop","branch":"Luzern Schlossberg","alt_name":"Coop Schlossberg","addr:city":"Luzern","brand":"Coop","brand:wikidata":"Q432564","opening_hours":"Mo-Fr 07:30-18:30; Sa 07:30-16:00","operator":"Coop Genossenschaft","wheelchair":"","@user":"sovereign_ch","internet_access":"wlan","organic":"","level":"","phone":41413670970,"contact:phone":"","website":"https://coop.ch/","addr:street":"Maihofstrasse","addr:housenumber":1,"addr:postcode":6006},"geometry":{"type":"Point","coordinates":[8.3083616,47.0614224]}},{"type":"Feature","properties":{"@id":"node/1069059529","name":"Migros","branch":"Luzern Waldstätter","alt_name":"Migros Waldstätter","addr:city":"Luzern","brand":"Migros","brand:wikidata":"Q680727","opening_hours":"Mo-Fr 08:00-19:00; Fr 08:00-20:00; Sa 08:00-17:00; PH off","operator":"Genossenschaft Migros Luzern","wheelchair":"yes","@user":"sovereign_ch","internet_access":"wlan","organic":"","level":"","phone":"","contact:phone":"","website":"https://filialen.migros.ch/de/migros-supermarkt-luzern-waldstaetter","addr:street":"Winkelriedstrasse","addr:housenumber":58,"addr:postcode":6003},"geometry":{"type":"Point","coordinates":[8.3072505,47.0461309]}},{"type":"Feature","properties":{"@id":"node/1069059588","name":"Coop","branch":"Luzern Winkelried","alt_name":"Coop Winkelried","addr:city":"Luzern","brand":"Coop","brand:wikidata":"Q432564","opening_hours":"","operator":"Coop Genossenschaft","wheelchair":"yes","@user":"sovereign_ch","internet_access":"wlan","organic":"","level":"","phone":"","contact:phone":"","website":"","addr:street":"Winkelriedstrasse","addr:housenumber":56,"addr:postcode":6000},"geometry":{"type":"Point","coordinates":[8.3068307,47.0465392]}},{"type":"Feature","properties":{"@id":"node/1213912708","name":"Coop","branch":"Luzern Hubelmatt","alt_name":"Coop Hubelmatt","addr:city":"Luzern","brand":"Coop","brand:wikidata":"Q432564","opening_hours":"","operator":"Coop Genossenschaft","wheelchair":"yes","@user":"topius","internet_access":"","organic":"","level":"","phone":"","contact:phone":"","website":"","addr:street":"","addr:housenumber":"","addr:postcode":6005},"geometry":{"type":"Point","coordinates":[8.3084669,47.0372758]}},{"type":"Feature","properties":{"@id":"node/1254632069","name":"Coop","branch":"Luzern Schönbühl","alt_name":"Coop Schönbühl","addr:city":"Luzern","brand":"Coop","brand:wikidata":"Q432564","opening_hours":"","operator":"Coop Genossenschaft","wheelchair":"","@user":"sovereign_ch","internet_access":"","organic":"","level":"","phone":"","contact:phone":"","website":"","addr:street":"Langensandstrasse","addr:housenumber":23,"addr:postcode":6005},"geometry":{"type":"Point","coordinates":[8.3287849,47.0372902]}},{"type":"Feature","properties":{"@id":"node/1254632070","name":"Migros","branch":"Luzern Schönbühl","alt_name":"Migros Schönbühl (MM)","addr:city":"Luzern","brand":"Migros","brand:wikidata":"Q680727","opening_hours":"Mo-Th 08:30-19:00, Fr 08:30-21:00, Sa 08:00-17:00; PH off","operator":"Genossenschaft Migros Luzern","wheelchair":"","@user":"sovereign_ch","internet_access":"","organic":"","level":"","phone":"","contact:phone":"","website":"https://filialen.migros.ch/de/migros-supermarkt-luzern-schoenbuehl","addr:street":"Langensandstrasse","addr:housenumber":23,"addr:postcode":6005},"geometry":{"type":"Point","coordinates":[8.3282536,47.0374219]}},{"type":"Feature","properties":{"@id":"node/1302026588","name":"Denner","branch":"Luzern EKZ Schönbühl","alt_name":"","addr:city":"Luzern","brand":"Denner","brand:wikidata":"Q379911","opening_hours":"","operator":"","wheelchair":"","@user":"sovereign_ch","internet_access":"","organic":"","level":"","phone":"","contact:phone":"","website":"","addr:street":"Langensandstrasse","addr:housenumber":23,"addr:postcode":6005},"geometry":{"type":"Point","coordinates":[8.3287776,47.0374484]}},{"type":"Feature","properties":{"@id":"node/1334477909","name":"Migros Partner","branch":"Luzern Wesemlin","alt_name":"Migros Partner Wesemlin","addr:city":"Luzern","brand":"","brand:wikidata":"","opening_hours":"Mo-Fr 08:00-12:15, 13:30-19:00, Sa 08:00-17:00; PH off","operator":"Genossenschaft Migros Luzern","wheelchair":"","@user":"sovereign_ch","internet_access":"","organic":"","level":"","phone":"","contact:phone":"","website":"https://filialen.migros.ch/de/migros-partner-luzern-wesemlin","addr:street":"Mettenwylstrasse","addr:housenumber":16,"addr:postcode":6006},"geometry":{"type":"Point","coordinates":[8.3168017,47.0624071]}},{"type":"Feature","properties":{"@id":"node/1351032263","name":"Migros","branch":"Luzern Bruchstrasse","alt_name":"Migros Bruchstrasse","addr:city":"Luzern","brand":"Migros","brand:wikidata":"Q680727","opening_hours":"Mo-Fr 08:00-19:00; Fr 08:00-20:00; Sa 08:00-17:00; PH off","operator":"Genossenschaft Migros Luzern","wheelchair":"","@user":"sovereign_ch","internet_access":"","organic":"","level":"","phone":"","contact:phone":"","website":"https://filialen.migros.ch/de/migros-supermarkt-luzern-bruchstrasse","addr:street":"Bruchstrasse","addr:housenumber":18,"addr:postcode":6003},"geometry":{"type":"Point","coordinates":[8.2993724,47.0505994]}},{"type":"Feature","properties":{"@id":"node/3580426606","name":"Aldi","branch":"","alt_name":"","addr:city":"","brand":"","brand:wikidata":"","opening_hours":"","operator":"","wheelchair":"","@user":"marco80","internet_access":"","organic":"","level":"","phone":"","contact:phone":"","website":"","addr:street":"","addr:housenumber":"","addr:postcode":""},"geometry":{"type":"Point","coordinates":[8.3282701,47.0372139]}},{"type":"Feature","properties":{"@id":"node/4307893181","name":"Coop","branch":"Luzern Löwencenter","alt_name":"Coop Löwencenter","addr:city":"Luzern","brand":"Coop","brand:wikidata":"Q432564","opening_hours":"Mo-We 07:30-18:30, Th,Fr 07:30-21:00, Sa 08:00-16:00","operator":"Coop Genossenschaft","wheelchair":"yes","@user":"sovereign_ch","internet_access":"","organic":"","level":"","phone":"","contact:phone":"","website":"","addr:street":"Zürichstrasse","addr:housenumber":9,"addr:postcode":6004},"geometry":{"type":"Point","coordinates":[8.3101171,47.0568709]}},{"type":"Feature","properties":{"@id":"node/4307893182","name":"Denner","branch":"Luzern Löwen-Center","alt_name":"","addr:city":"Luzern","brand":"Denner","brand:wikidata":"Q379911","opening_hours":"","operator":"","wheelchair":"","@user":"sovereign_ch","internet_access":"","organic":"","level":"","phone":"","contact:phone":"","website":"","addr:street":"Zürichstrasse","addr:housenumber":5,"addr:postcode":6004},"geometry":{"type":"Point","coordinates":[8.3100234,47.0562172]}},{"type":"Feature","properties":{"@id":"node/4434448389","name":"Aldi","branch":"","alt_name":"","addr:city":"","brand":"","brand:wikidata":"","opening_hours":"Mo-We 07:30-18:30; Th-Fr 07:30-21:00; Sa 07:30-16:00","operator":"","wheelchair":"","@user":"sovereign_ch","internet_access":"","organic":"","level":"","phone":"","contact:phone":"","website":"","addr:street":"","addr:housenumber":"","addr:postcode":""},"geometry":{"type":"Point","coordinates":[8.298684,47.0514167]}},{"type":"Feature","properties":{"@id":"node/4483851909","name":"Shanghai","branch":"","alt_name":"","addr:city":"","brand":"","brand:wikidata":"","opening_hours":"","operator":"","wheelchair":"","@user":"Interactiondesigner","internet_access":"","organic":"","level":"","phone":"","contact:phone":"","website":"","addr:street":"","addr:housenumber":"","addr:postcode":""},"geometry":{"type":"Point","coordinates":[8.3013009,47.0503581]}},{"type":"Feature","properties":{"@id":"node/4534849601","name":"Aldi","branch":"","alt_name":"","addr:city":"","brand":"Aldi","brand:wikidata":"Q125054","opening_hours":"Mo-We 08:00-18:30; Th, Fr 08:00-21:00; Sa 08:00-16:00","operator":"","wheelchair":"","@user":"Interactiondesigner","internet_access":"","organic":"","level":"","phone":"+41 41 240 79 82","contact:phone":"","website":"","addr:street":"Hertensteinstrasse","addr:housenumber":50,"addr:postcode":""},"geometry":{"type":"Point","coordinates":[8.3075962,47.0541662]}},{"type":"Feature","properties":{"@id":"node/4751134997","name":"s'Gänterli Bio-Laden","branch":"","alt_name":"","addr:city":"","brand":"","brand:wikidata":"","opening_hours":"Tu-Fr 08:30-12:15,14:00-18:30; Sa 08:30-16:00","operator":"","wheelchair":"","@user":"Nedfro","internet_access":"","organic":"only","level":"","phone":"+41 41 240 59 12","contact:phone":"","website":"http://www.gänterli.ch/","addr:street":"Vonmattstrasse","addr:housenumber":50,"addr:postcode":""},"geometry":{"type":"Point","coordinates":[8.300816,47.0461691]}},{"type":"Feature","properties":{"@id":"node/4931591722","name":"Migros","branch":"Luzern Schlossberg","alt_name":"Migros Schlossberg","addr:city":"Luzern","brand":"Migros","brand:wikidata":"Q680727","opening_hours":"Mo-Th 08:00-19:00, Fr 08:00-20:00, Sa 08:00-17:00; PH off","operator":"Genossenschaft Migros Luzern","wheelchair":"","@user":"sovereign_ch","internet_access":"","organic":"","level":"","phone":"","contact:phone":"","website":"https://filialen.migros.ch/de/migros-supermarkt-luzern-schlossberg","addr:street":"Friedentalstrasse","addr:housenumber":6,"addr:postcode":6004},"geometry":{"type":"Point","coordinates":[8.3077943,47.0612692]}},{"type":"Feature","properties":{"@id":"node/5435055314","name":"Coop","branch":"Luzern Hirschmatt","alt_name":"Coop Hirschmatt","addr:city":"Luzern","brand":"Coop","brand:wikidata":"Q432564","opening_hours":"Mo-We 06:30-18:00; Th-Fr 06:30-24:00; PH closed; Sa 06:30-16:00","operator":"Coop Genossenschaft","wheelchair":"no","@user":"sovereign_ch","internet_access":"","organic":"","level":"","phone":"","contact:phone":"","website":"","addr:street":"Hirschmattstrasse","addr:housenumber":15,"addr:postcode":6003},"geometry":{"type":"Point","coordinates":[8.306677,47.0485838]}},{"type":"Feature","properties":{"@id":"node/6433998885","name":"Bio Oel","branch":"","alt_name":"","addr:city":"","brand":"","brand:wikidata":"","opening_hours":"","operator":"","wheelchair":"","@user":"Interactiondesigner","internet_access":"","organic":"only","level":"","phone":"","contact:phone":"","website":"","addr:street":"","addr:housenumber":"","addr:postcode":""},"geometry":{"type":"Point","coordinates":[8.2992586,47.0507244]}},{"type":"Feature","properties":{"@id":"node/6652920985","name":"Denner","branch":"Luzern Bundesstrasse","alt_name":"","addr:city":"Luzern","brand":"Denner","brand:wikidata":"Q379911","opening_hours":"","operator":"","wheelchair":"","@user":"sovereign_ch","internet_access":"","organic":"","level":"","phone":"","contact:phone":"","website":"","addr:street":"Bundesstrasse","addr:housenumber":12,"addr:postcode":6003},"geometry":{"type":"Point","coordinates":[8.304805,47.0436265]}},{"type":"Feature","properties":{"@id":"node/6710832885","name":"Alnatura","branch":"Luzern","alt_name":"Alnatura Luzern","addr:city":"Luzern","brand":"Alnatura","brand:wikidata":"Q876811","opening_hours":"Mo-Fr 08:00-19:00; Th 08:00-21:00; Sa 08:00-17:00; PH off","operator":"Genossenschaft Migros Luzern","wheelchair":"","@user":"sovereign_ch","internet_access":"","organic":"","level":"","phone":"","contact:phone":"","website":"https://www.alnatura.ch/de/filialfinder.html#alnatura-bio-super-markt-alnatura-bio-super-markt-luzern","addr:street":"Hertensteinstrasse","addr:housenumber":40,"addr:postcode":6004},"geometry":{"type":"Point","coordinates":[8.3084604,47.0543816]}},{"type":"Feature","properties":{"@id":"node/7395144124","name":"Coop","branch":"","alt_name":"Coop City Luzern Food","addr:city":"Luzern","brand":"Coop","brand:wikidata":"Q432564","opening_hours":"","operator":"Coop Genossenschaft","wheelchair":"","@user":"sovereign_ch","internet_access":"","organic":"","level":"","phone":"","contact:phone":"","website":"","addr:street":"Rössligasse","addr:housenumber":"18-20","addr:postcode":6000},"geometry":{"type":"Point","coordinates":[8.3039971,47.0521569]}},{"type":"Feature","properties":{"@id":"node/8171358619","name":"Denner","branch":"","alt_name":"","addr:city":"","brand":"Denner","brand:wikidata":"Q379911","opening_hours":"","operator":"","wheelchair":"","@user":"topius","internet_access":"","organic":"","level":"","phone":"","contact:phone":"","website":"","addr:street":"","addr:housenumber":""},"geometry":{"type":"Point","coordinates":[8.3041762,47.037959]}}]}